[
  {
    "OBJECT_NAME": "STARLINK-4296",
    "OBJECT_ID": "2022-076K",
    "EPOCH": "2025-09-19T22:13:40.849536",
    "MEAN_MOTION": 15.08839264,
    "ECCENTRICITY": 0.00014929,
    "INCLINATION": 53.2163,
    "RA_OF_ASC_NODE": 140.7073,
    "ARG_OF_PERICENTER": 94.4944,
    "MEAN_ANOMALY": 265.6219,
    "EPHEMERIS_TYPE": 0,
    "CLASSIFICATION_TYPE": "U",
    "NORAD_CAT_ID": 52995,
    "ELEMENT_SET_NO": 999,
    "REV_AT_EPOCH": 17706,
    "BSTAR": 4.4405698e-05,
    "MEAN_MOTION_DOT": 4.19e-06,
    "MEAN_MOTION_DDOT": 0
  },
  {
    "OBJECT_NAME": "STARLINK-33712",
    "OBJECT_ID": "2025-091Y",
    "EPOCH": "2025-09-20T02:44:52.615104",
    "MEAN_MOTION": 15.2760203,
    "ECCENTRICITY": 0.00018074,
    "INCLINATION": 43.0009,
    "RA_OF_ASC_NODE": 299.4811,
    "ARG_OF_PERICENTER": 280.2288,
    "MEAN_ANOMALY": 79.836,
    "EPHEMERIS_TYPE": 0,
    "CLASSIFICATION_TYPE": "U",
    "NORAD_CAT_ID": 63797,
    "ELEMENT_SET_NO": 999,
    "REV_AT_EPOCH": 2277,
    "BSTAR": 0.0013483293,
    "MEAN_MOTION_DOT": 0.00037053,
    "MEAN_MOTION_DDOT": 0
  },
  {
    "OBJECT_NAME": "STARLINK-3604",
    "OBJECT_ID": "2022-017AZ",
    "EPOCH": "2025-09-19T14:25:21.314496",
    "MEAN_MOTION": 15.08840435,
    "ECCENTRICITY": 0.00012071,
    "INCLINATION": 53.2192,
    "RA_OF_ASC_NODE": 17.1695,
    "ARG_OF_PERICENTER": 86.2832,
    "MEAN_ANOMALY": 273.8298,
    "EPHEMERIS_TYPE": 0,
    "CLASSIFICATION_TYPE": "U",
    "NORAD_CAT_ID": 51815,
    "ELEMENT_SET_NO": 999,
    "REV_AT_EPOCH": 19825,
    "BSTAR": 6.8562592e-05,
    "MEAN_MOTION_DOT": 8.04e-06,
    "MEAN_MOTION_DDOT": 0
  },
  {
    "OBJECT_NAME": "STARLINK-30802",
    "OBJECT_ID": "2023-166A",
    "EPOCH": "2025-09-19T08:39:59.911776",
    "MEAN_MOTION": 15.30192674,
    "ECCENTRICITY": 0.00011666,
    "INCLINATION": 53.1586,
    "RA_OF_ASC_NODE": 295.7233,
    "ARG_OF_PERICENTER": 76.8647,
    "MEAN_ANOMALY": 283.2484,
    "EPHEMERIS_TYPE": 0,
    "CLASSIFICATION_TYPE": "U",
    "NORAD_CAT_ID": 58150,
    "ELEMENT_SET_NO": 999,
    "REV_AT_EPOCH": 10694,
    "BSTAR": 5.943691e-06,
    "MEAN_MOTION_DOT": -1.83e-06,
    "MEAN_MOTION_DDOT": 0
  },
  {
    "OBJECT_NAME": "GEESAT-1 05",
    "OBJECT_ID": "2022-058E",
    "EPOCH": "2025-09-20T07:51:54.809280",
    "MEAN_MOTION": 14.972198,
    "ECCENTRICITY": 0.00023566,
    "INCLINATION": 49.9888,
    "RA_OF_ASC_NODE": 22.2468,
    "ARG_OF_PERICENTER": 256.4013,
    "MEAN_ANOMALY": 103.6668,
    "EPHEMERIS_TYPE": 0,
    "CLASSIFICATION_TYPE": "U",
    "NORAD_CAT_ID": 52789,
    "ELEMENT_SET_NO": 999,
    "REV_AT_EPOCH": 17972,
    "BSTAR": 0.00052482673,
    "MEAN_MOTION_DOT": 5.895e-05,
    "MEAN_MOTION_DDOT": 0
  },
  {
    "OBJECT_NAME": "STARLINK-30914",
    "OBJECT_ID": "2023-178D",
    "EPOCH": "2025-09-19T18:17:42.581760",
    "MEAN_MOTION": 15.30198378,
    "ECCENTRICITY": 0.00010046,
    "INCLINATION": 53.1601,
    "RA_OF_ASC_NODE": 74.8642,
    "ARG_OF_PERICENTER": 94.0631,
    "MEAN_ANOMALY": 266.0484,
    "EPHEMERIS_TYPE": 0,
    "CLASSIFICATION_TYPE": "U",
    "NORAD_CAT_ID": 58377,
    "ELEMENT_SET_NO": 999,
    "REV_AT_EPOCH": 10372,
    "BSTAR": 3.2011816e-05,
    "MEAN_MOTION_DOT": 5.89e-06,
    "MEAN_MOTION_DDOT": 0
  },
  {
    "OBJECT_NAME": "STARLINK-3812",
    "OBJECT_ID": "2022-045R",
    "EPOCH": "2025-09-19T16:14:02.637888",
    "MEAN_MOTION": 15.08839279,
    "ECCENTRICITY": 0.00012428,
    "INCLINATION": 53.2166,
    "RA_OF_ASC_NODE": 246.8379,
    "ARG_OF_PERICENTER": 85.4014,
    "MEAN_ANOMALY": 274.712,
    "EPHEMERIS_TYPE": 0,
    "CLASSIFICATION_TYPE": "U",
    "NORAD_CAT_ID": 52346,
    "ELEMENT_SET_NO": 999,
    "REV_AT_EPOCH": 18996,
    "BSTAR": 5.8027412e-05,
    "MEAN_MOTION_DOT": 6.36e-06,
    "MEAN_MOTION_DDOT": 0
  },
  {
    "OBJECT_NAME": "STARLINK-34141",
    "OBJECT_ID": "2025-101AC",
    "EPOCH": "2025-09-20T00:38:42.725760",
    "MEAN_MOTION": 15.27596392,
    "ECCENTRICITY": 0.00011075,
    "INCLINATION": 42.9995,
    "RA_OF_ASC_NODE": 241.8471,
    "ARG_OF_PERICENTER": 239.8425,
    "MEAN_ANOMALY": 120.2317,
    "EPHEMERIS_TYPE": 0,
    "CLASSIFICATION_TYPE": "U",
    "NORAD_CAT_ID": 64020,
    "ELEMENT_SET_NO": 999,
    "REV_AT_EPOCH": 2095,
    "BSTAR": 0.00098697817,
    "MEAN_MOTION_DOT": 0.0002701,
    "MEAN_MOTION_DDOT": 0
  },
  {
    "OBJECT_NAME": "STARLINK-32385",
    "OBJECT_ID": "2024-164U",
    "EPOCH": "2025-09-20T03:14:24.765504",
    "MEAN_MOTION": 15.3018729,
    "ECCENTRICITY": 0.00012517,
    "INCLINATION": 53.1601,
    "RA_OF_ASC_NODE": 163.4156,
    "ARG_OF_PERICENTER": 77.4701,
    "MEAN_ANOMALY": 282.644,
    "EPHEMERIS_TYPE": 0,
    "CLASSIFICATION_TYPE": "U",
    "NORAD_CAT_ID": 61068,
    "ELEMENT_SET_NO": 999,
    "REV_AT_EPOCH": 5736,
    "BSTAR": 8.5753617e-05,
    "MEAN_MOTION_DOT": 2.18e-05,
    "MEAN_MOTION_DDOT": 0
  }
]