51815,STARLINK-3604,2022,95.44,260.0,+,53.22,Active,1,LEO,USA,USA,Commercial,Communications,Falcon,1 51815U 22017AZ  25262.60094114  .00000804  00000+0  68563-4 0  9997,2 51815  53.2192  17.1695 0001207  86.2832 273.8298 15.08840435198254,15.08840435,0.0001207,LEO
52346,STARLINK-3812,2022,95.44,260.0,+,53.22,Active,1,LEO,USA,USA,Commercial,Communications,Falcon,1 52346U 22045R   25262.67641942  .00000636  00000+0  58027-4 0  9999,2 52346  53.2166 246.8379 0001242  85.4014 274.7120 15.08839279189963,15.08839279,0.0001242,LEO
52789,GEESAT-1 05,2022,96.18,100.0,+,49.99,Active,1,LEO,PRC,China,Commercial,Earth Observation/Navigation,Long March,1 52789U 22058E   25263.32771770  .00005895  00000+0  52483-3 0  9991,2 52789  49.9888  22.2468 0002356 256.4013 103.6668 14.97219800179727,14.972198,0.0002356,LEO
52995,STARLINK-4296,2022,95.44,260.0,+,53.22,Active,1,LEO,USA,USA,Commercial,Communications,Falcon,1 52995U 22076K   25262.92616724  .00000419  00000+0  44406-4 0  9996,2 52995  53.2163 140.7073 0001492  94.4944 265.6219 15.08839264177062,15.08839264,0.0001492,LEO
58150,STARLINK-30802,2023,94.11,-1.0,+,53.16,Active,0,LEO,USA,USA,Unknown,Unknown,Unknown,1 58150U 23166A   25262.36111009 -.00000183  00000+0  59437-5 0  9990,2 58150  53.1586 295.7233 0001166  76.8647 283.2484 15.30192674106941,15.30192674,0.0001166,LEO
58377,STARLINK-30914,2023,94.11,-1.0,+,53.16,Active,0,LEO,USA,USA,Unknown,Unknown,Unknown,1 58377U 23178D   25262.76229840  .00000589  00000+0  32012-4 0  9999,2 58377  53.1601  74.8642 0001004  94.0631 266.0484 15.30198378103725,15.30198378,0.0001004,LEO
61068,STARLINK-32385,2024,94.11,-1.0,+,53.16,Active,0,LEO,USA,USA,Unknown,Unknown,Unknown,1 61068U 24164U   25263.13500886  .00002180  00000+0  85754-4 0  9990,2 61068  53.1601 163.4156 0001251  77.4701 282.6440 15.30187290 57363,15.3018729,0.0001251,LEO
63797,STARLINK-33712,2025,94.27,-1.0,+,43.0,Active,0,LEO,USA,USA,Unknown,Unknown,Unknown,1 63797U 25091Y   25263.11449786  .00037053  00000+0  13483-2 0  9995,2 63797  43.0009 299.4811 0001807 280.2288  79.8360 15.27602030 22777,15.2760203,0.0001807,LEO
64020,STARLINK-34141,2025,94.27,-1.0,+,43.0,Active,0,LEO,USA,USA,Unknown,Unknown,Unknown,1 64020U 25101AC  25263.02688340  .00027010  00000+0  98698-3 0  9992,2 64020  42.9995 241.8471 0001107 239.8425 120.2317 15.27596392 20952,15.27596392,0.0001107,LEO
